J99V95Y 16.8   0.15 K14C9  47.29289  307.32876   37.20167    7.97174  0.2502167  0.26406664   2.4061740  1 E2014-U41    86   5 1999-2014 0.51 M-v 38h MPCADO     0400          1999 VY95          20141022
K00S70D 16.2   0.15 K14C9  12.41891   14.22992   16.14797    8.16919  0.2262031  0.21292572   2.7774780  1 E2014-U41    87   5 2000-2014 0.53 M-v 38h MPCADO     0400          2000 SD70          20141023
K00SR2R 17.5   0.15 K14C9   4.49232  213.07414  204.52631   10.65599  0.3483817  0.21264702   2.7799043  2 E2014-U41    71   3 2000-2014 0.45 M-v 38h MPCADO     0000          2000 SR272         20141023
K01T47S 17.4   0.15 K14C9  45.26033  299.68848   65.16408   12.13925  0.1302817  0.23080042   2.6321562  1 E2014-U41    37   3 2001-2014 0.23 M-v 38h MPCADO     0000          2001 TS47          20141023
K01T93G 16.5   0.15 K14C9 340.95829  225.98642  224.60219   13.20198  0.2637465  0.22945868   2.6424071  1 E2014-U41    39   4 2001-2014 0.45 M-v 38h MPCADO     0000          2001 TG93          20141021
K01TQ2U 16.9   0.15 K14C9  23.37064  185.82505  200.87461   13.58544  0.1614190  0.23291998   2.6161635  2 E2014-U41    51   4 2001-2014 0.31 M-v 38h MPCADO     0000          2001 TU262         20141023
K01U42O 17.9   0.15 K14C9  19.66428  244.16234  138.44088    1.01196  0.3056685  0.22869959   2.6482509  2 E2014-U41    39   3 2001-2014 0.38 M-v 38h MPCADO     0000          2001 UO42          20141021
K01U75B 17.4   0.15 K14C9  13.74110  342.43889   46.69754   14.95016  0.2129669  0.22671780   2.6636611  2 E2014-U41    45   2 2001-2014 0.45 M-v 38h MPCADO     0000          2001 UB75          20141022
K01UE3H 18.3   0.15 K14C9  30.72143  321.36644   66.76971    4.76552  0.1283911  0.30529617   2.1843479  1 E2014-U41    38   4 2001-2014 0.45 M-v 38h MPCADO     0000          2001 UH143         20141023
K01W56R 17.0   0.15 K14C9 347.91569   22.56982   46.01606    9.95940  0.0965292  0.22680005   2.6630171  1 E2014-U41    32   4 2001-2014 0.38 M-v 38h MPCADO     0000          2001 WR56          20141022
K03SN3O 16.2   0.15 K14C9  11.03428    6.01073   27.15827   12.14906  0.1276658  0.18313349   3.0710781  1 E2014-U41    51   4 2003-2014 0.40 M-v 38h MPCADO     0000          2003 SO233         20141023
K03Sh3G 16.9   0.15 K14C9  13.71798  143.67892  244.88243    7.82382  0.0875231  0.18808142   3.0169779  1 E2014-U41    16   3 2003-2014 0.25 M-v 38h MPCADO     0000          2003 SG433         20141021
K03U29Y 16.3   0.15 K14C9  19.09711  109.72307  272.32091    5.84035  0.1608776  0.17976917   3.1092758  1 E2014-U41    80   5 2003-2014 0.44 M-v 38h MPCADO     0000          2003 UY29          20141021
K03U56R 15.9   0.15 K14C9 353.57402   13.94606   46.26231   18.04382  0.1810390  0.17907645   3.1172890  3 E2014-U41    54   3 2003-2014 0.52 M-v 38h MPCADO     0000          2003 UR56          20141023
K03U69S 19.0   0.15 K14C9  27.25527  232.36152  142.63289    1.70008  0.2020238  0.27197723   2.3592884  3 E2014-U41    31   2 2003-2014 0.26 M-v 38h MPCADO     0000          2003 US69          20141023
K03UB9P 16.5   0.15 K14C9  12.23817  143.87701  226.26712    7.96572  0.1158669  0.17706127   3.1408968  1 E2014-U41    38   4 2003-2014 0.35 M-v 38h MPCADO     0000          2003 UP119         20141021
K03UM1L 15.6   0.15 K14C9  65.84191  326.04176    3.38633    9.91395  0.1041340  0.18252442   3.0779063  1 E2014-U41    55   4 2003-2014 0.40 M-v 38h MPCADO     0000          2003 UL221         20141022
K03Ua6D 16.8   0.15 K14C9   7.42893   10.11166   28.23957    4.08424  0.1588414  0.17784865   3.1316195  3 E2014-U41    23   3 2003-2014 0.24 M-v 38h MPCADO     0000          2003 UD366         20141023
K03W62G 16.7   0.15 K14C9 349.76631  189.86556  236.24410   12.13554  0.2225847  0.17752606   3.1354121  3 E2014-U41    69   2 2003-2014 0.25 M-v 38h MPCADO     0000          2003 WG62          20141021
K03X00M 19.1   0.15 K14C9 321.51724  156.07081  355.51427    5.61959  0.6790118  0.17230668   3.1984138  0 E2014-U41   119   2 2003-2014 0.45 M-v 3Eh MPCW       8804          2003 XM            20141022
K04E28L 16.0   0.15 K14C9 345.36750  271.15051  168.55324    6.08337  0.2104244  0.16236195   3.3277182  0 E2014-U41    63   9 2001-2014 0.33 M-v 38h MPCADO     0400          2004 EL28          20141023
K04R27H 18.2   0.15 K14C9  78.95212  192.04347  132.68431    4.35779  0.1697722  0.30599384   2.1810264  1 E2014-U41    42   5 2004-2014 0.41 M-v 38h MPCADO     0400          2004 RH27          20141023
K04RY7A 18.7   0.15 K14C9  48.78765   38.85245  301.02987    1.75480  0.2539282  0.29891604   2.2153205  4 E2014-U41    34   2 2004-2014 0.46 M-v 38h MPCADO     0005          2004 RA347         20141021
K04Y05W 18.9   0.15 K14C9   3.63861  146.35864  268.33903    6.65645  0.3358438  0.29412669   2.2393042  4 E2014-U41    33   2 2004-2014 0.44 M-v 38h MPCADO     0005          2004 YW5           20141023
K05J24R 18.8   0.15 K14C9 130.03042   47.04441  224.02402   19.23875  0.0776311  0.35621832   1.9708726  4 E2014-U41    28   2 2005-2014 0.28 M-v 38h MPCW       0006          2005 JR24          20141023
K05QJ0L 16.9   0.15 K14C9 328.06863  257.94685  177.69266    2.33874  0.0218143  0.22625333   2.6673053  0 E2014-U41    86   8 2001-2014 0.36 M-v 38h MPCADO     0400          2005 QL190         20141022
K05S42W 17.5   0.15 K14C9  21.98723  184.87427  205.14813   14.30021  0.1104653  0.22413189   2.6841098  3 E2014-U41    24   2 2005-2014 0.19 M-v 38h MPCADO     0000          2005 SW42          20141023
K05SH1D 17.6   0.15 K14C9  51.12325  139.47497  213.43208    6.01677  0.1150409  0.22555813   2.6727831  3 E2014-U41    33   3 2001-2014 0.32 M-v 38h MPCADO     0000          2005 SD171         20141021
K05SM2C 16.3   0.15 K14C9  35.19815  230.16203  103.90189   10.71936  0.2389330  0.21899196   2.7259461  4 E2014-U41    26   2 2005-2014 0.43 M-v 38h MPCADO     0000          2005 SC222         20141023
K05TD0E 17.3   0.15 K14C9  66.92719  298.31250   33.21707    2.92878  0.1812165  0.22279322   2.6948509  3 E2014-U41    35   3 2005-2014 0.25 M-v 38h MPCADO     0000          2005 TE130         20141022
K05U04L 16.4   0.15 K14C9 359.01924  190.94313  220.17760   11.48498  0.1199183  0.21926568   2.7236770  1 E2014-U41   106   6 2000-2014 0.48 M-v 38h MPCADO     0000          2005 UL4           20141023
K05U50W 17.1   0.15 K14C9  46.36415  332.80644   13.01318    5.35287  0.2422086  0.21970785   2.7200215  4 E2014-U41    24   3 2005-2014 0.48 M-v 38h MPCADO     0000          2005 UW50          20141022
K05U99J 17.7   0.15 K14C9 341.50600   13.13708   69.69944   10.54849  0.1850156  0.21871395   2.7282556  4 E2014-U41    21   2 2005-2014 0.24 M-v 38h MPCADO     0000          2005 UJ99          20141023
K05UC8K 16.8   0.15 K14C9 336.11602   46.47208   43.46635   11.90743  0.1100901  0.22019746   2.7159880  3 E2014-U41    39   3 2005-2014 0.37 M-v 38h MPCADO     0000          2005 UK128         20141022
K05UL9Q 17.1   0.15 K14C9  36.23778   91.73677  276.11502    3.56410  0.1327476  0.22002168   2.7174343  0 E2014-U41    41   6 2000-2014 0.32 M-v 38h MPCADO     0400          2005 UQ219         20141021
K05UO0T 16.8   0.15 K14C9  64.17423  253.09417   96.57059    6.11120  0.1334150  0.22187375   2.7022909  0 E2014-U41    54   6 2005-2014 0.42 M-v 38h MPCADO     0400          2005 UT240         20141023
K05UO7O 16.8   0.15 K14C9 355.52409  193.97590  219.85054    5.14518  0.0251422  0.21677551   2.7444958  0 E2014-U41    60   7 1994-2014 0.31 M-v 38h MPCADO     0400          2005 UO247         20141023
K05UT1R 17.0   0.15 K14C9  65.88195   88.45552  244.78382    8.94746  0.0861769  0.21730222   2.7400591  4 E2014-U41    18   2 2005-2014 0.33 M-v 38h MPCLINUX   0000          2005 UR291         20141021
K05UT3C 17.1   0.15 K14C9  40.42224  351.74185    6.21427    3.39686  0.1030608  0.21649431   2.7468718  1 E2014-U41    44   6 2001-2014 0.55 M-v 38h MPCADO     0000          2005 UC293         20141023
K05UX1Z 16.7   0.15 K14C9 178.64435  152.52885   88.23593    6.08010  0.0607665  0.22033693   2.7148417  0 E2014-U41    42   7 2003-2014 0.30 M-v 38h MPCADO     0400          2005 UZ331         20141022
K05UX7T 16.9   0.15 K14C9 106.62669   62.81495  214.33260   13.27386  0.1926040  0.21822577   2.7323229  0 E2014-U41    33   4 2005-2014 0.24 M-v 38h MPCADO     0000          2005 UT337         20141021
K05Uc3V 16.8   0.15 K14C9  26.33661  317.85253   61.03539   12.76701  0.1953877  0.22211111   2.7003654  1 E2014-U41    52   4 2005-2014 0.41 M-v 38h MPCADO     0000          2005 UV383         20141023
K05Ud6D 16.5   0.15 K14C9 349.93426  223.46148  215.13064   12.63638  0.1638476  0.22138609   2.7062578  1 E2014-U41    60   5 2003-2014 0.50 M-v 38h MPCADO     0400          2005 UD396         20141023
K05Ug0U 17.1   0.15 K14C9  44.33274  322.45618   49.45602   10.68470  0.1263257  0.22133155   2.7067023  4 E2014-U41    27   2 2005-2014 0.26 M-v 38h MPCW       0000          2005 UU420         20141021
K05V82M 17.7   0.15 K14C9 327.51444  215.83714  245.21813    6.34203  0.1778173  0.21901137   2.7257851  4 E2014-U41    25   2 2005-2014 0.30 M-v 38h MPCLINUX   0000          2005 VM82          20141021
K05VA7Y 16.8   0.15 K14C9  11.96102  350.69233   61.95029   15.16200  0.1795753  0.21851909   2.7298773  3 E2014-U41    41   2 2005-2014 0.40 M-v 38h MPCADO     0000          2005 VY107         20141023
K05W77S 16.5   0.15 K14C9  14.23735  324.71309   63.94065    7.53077  0.0586621  0.20990399   2.8040705  1 E2014-U41    35   4 2005-2014 0.27 M-v 38h MPCADO     0000          2005 WS77          20141021
K06H09V 16.2   0.15 K14C9 342.04009   31.27923   62.87856   12.83849  0.1039921  0.19015941   2.9949586  3 E2014-U41    21   3 2001-2014 0.31 M-v 38h MPCADO     0000          2006 HV9           20141022
K06J60D 15.9   0.15 K14C9  15.22287  352.16480   54.53340   12.23291  0.0608522  0.17632202   3.1496697  3 E2014-U41    27   3 2006-2014 0.24 M-v 38h MPCADO     0000          2006 JD60          20141021
